[{"OBJECT_NAME":"IRIDIUM 173","OBJECT_ID":"2019-002D","EPOCH":"2026-04-27T06:08:10.932576","MEAN_MOTION":14.34217899,"ECCENTRICITY":0.00022187,"INCLINATION":86.4013,"RA_OF_ASC_NODE":14.8488,"ARG_OF_PERICENTER":88.4136,"MEAN_ANOMALY":271.7314,"EPHEMERIS_TYPE":0,"CLASSIFICATION_TYPE":"U","NORAD_CAT_ID":43925,"ELEMENT_SET_NO":999,"REV_AT_EPOCH":38165,"BSTAR":1.4239117e-5,"MEAN_MOTION_DOT":6.0e-7,"MEAN_MOTION_DDOT":0},{"OBJECT_NAME":"IRIDIUM 169","OBJECT_ID":"2019-002E","EPOCH":"2026-04-27T06:25:43.507488","MEAN_MOTION":14.38608945,"ECCENTRICITY":0.0002833,"INCLINATION":86.4243,"RA_OF_ASC_NODE":46.4711,"ARG_OF_PERICENTER":92.3648,"MEAN_ANOMALY":267.7875,"EPHEMERIS_TYPE":0,"CLASSIFICATION_TYPE":"U","NORAD_CAT_ID":43926,"ELEMENT_SET_NO":999,"REV_AT_EPOCH":38290,"BSTAR":9.5352889e-5,"MEAN_MOTION_DOT":3.12e-6,"MEAN_MOTION_DDOT":0},{"OBJECT_NAME":"IRIDIUM 172","OBJECT_ID":"2019-002F","EPOCH":"2026-04-27T04:18:34.590528","MEAN_MOTION":14.34219881,"ECCENTRICITY":0.00019918,"INCLINATION":86.4008,"RA_OF_ASC_NODE":14.8883,"ARG_OF_PERICENTER":84.6266,"MEAN_ANOMALY":275.5157,"EPHEMERIS_TYPE":0,"CLASSIFICATION_TYPE":"U","NORAD_CAT_ID":43927,"ELEMENT_SET_NO":999,"REV_AT_EPOCH":38165,"BSTAR":7.3207291e-5,"MEAN_MOTION_DOT":2.25e-6,"MEAN_MOTION_DDOT":0},{"OBJECT_NAME":"IRIDIUM 175","OBJECT_ID":"2019-002G","EPOCH":"2026-04-27T06:13:51.177504","MEAN_MOTION":14.43590445,"ECCENTRICITY":0.00047863,"INCLINATION":86.4488,"RA_OF_ASC_NODE":311.8247,"ARG_OF_PERICENTER":54.9512,"MEAN_ANOMALY":305.2137,"EPHEMERIS_TYPE":0,"CLASSIFICATION_TYPE":"U","NORAD_CAT_ID":43928,"ELEMENT_SET_NO":999,"REV_AT_EPOCH":39163,"BSTAR":2.6237861e-5,"MEAN_MOTION_DOT":1.09e-6,"MEAN_MOTION_DDOT":0},{"OBJECT_NAME":"IRIDIUM 171","OBJECT_ID":"2019-002H","EPOCH":"2026-04-27T05:31:39.005184","MEAN_MOTION":14.34217258,"ECCENTRICITY":0.00021889,"INCLINATION":86.4018,"RA_OF_ASC_NODE":15.1674,"ARG_OF_PERICENTER":82.6387,"MEAN_ANOMALY":277.5058,"EPHEMERIS_TYPE":0,"CLASSIFICATION_TYPE":"U","NORAD_CAT_ID":43929,"ELEMENT_SET_NO":999,"REV_AT_EPOCH":38165,"BSTAR":-1.3656489e-5,"MEAN_MOTION_DOT":-1.8e-7,"MEAN_MOTION_DDOT":0},{"OBJECT_NAME":"IRIDIUM 170","OBJECT_ID":"2019-002J","EPOCH":"2026-04-27T06:10:35.719104","MEAN_MOTION":14.72255706,"ECCENTRICITY":0.00022369,"INCLINATION":86.6135,"RA_OF_ASC_NODE":14.8349,"ARG_OF_PERICENTER":84.189,"MEAN_ANOMALY":275.9583,"EPHEMERIS_TYPE":0,"CLASSIFICATION_TYPE":"U","NORAD_CAT_ID":43930,"ELEMENT_SET_NO":999,"REV_AT_EPOCH":39176,"BSTAR":0.00013162302,"MEAN_MOTION_DOT":8.55e-6,"MEAN_MOTION_DDOT":0},{"OBJECT_NAME":"IRIDIUM 167","OBJECT_ID":"2019-002K","EPOCH":"2026-04-27T05:22:31.000224","MEAN_MOTION":14.34217521,"ECCENTRICITY":0.00023717,"INCLINATION":86.401,"RA_OF_ASC_NODE":14.8918,"ARG_OF_PERICENTER":81.7323,"MEAN_ANOMALY":278.4142,"EPHEMERIS_TYPE":0,"CLASSIFICATION_TYPE":"U","NORAD_CAT_ID":43931,"ELEMENT_SET_NO":999,"REV_AT_EPOCH":38165,"BSTAR":-8.567878e-6,"MEAN_MOTION_DOT":-4.0e-8,"MEAN_MOTION_DDOT":0},{"OBJECT_NAME":"IRIDIUM 181","OBJECT_ID":"2023-068S","EPOCH":"2026-04-27T06:54:44.051040","MEAN_MOTION":14.43310829,"ECCENTRICITY":0.00021281,"INCLINATION":86.4477,"RA_OF_ASC_NODE":78.064,"ARG_OF_PERICENTER":80.5652,"MEAN_ANOMALY":279.579,"EPHEMERIS_TYPE":0,"CLASSIFICATION_TYPE":"U","NORAD_CAT_ID":56726,"ELEMENT_SET_NO":999,"REV_AT_EPOCH":15509,"BSTAR":0.00010199859,"MEAN_MOTION_DOT":3.63e-6,"MEAN_MOTION_DDOT":0},{"OBJECT_NAME":"IRIDIUM 177","OBJECT_ID":"2023-068T","EPOCH":"2026-04-27T01:56:08.952288","MEAN_MOTION":14.80236559,"ECCENTRICITY":0.00022929,"INCLINATION":86.1993,"RA_OF_ASC_NODE":353.0665,"ARG_OF_PERICENTER":92.4842,"MEAN_ANOMALY":267.6642,"EPHEMERIS_TYPE":0,"CLASSIFICATION_TYPE":"U","NORAD_CAT_ID":56727,"ELEMENT_SET_NO":999,"REV_AT_EPOCH":15880,"BSTAR":0.00012849232,"MEAN_MOTION_DOT":1.003e-5,"MEAN_MOTION_DDOT":0},{"OBJECT_NAME":"IRIDIUM 174","OBJECT_ID":"2023-068U","EPOCH":"2026-04-27T04:14:55.092192","MEAN_MOTION":14.72254017,"ECCENTRICITY":0.00023675,"INCLINATION":86.6143,"RA_OF_ASC_NODE":15.0105,"ARG_OF_PERICENTER":90.4874,"MEAN_ANOMALY":269.6615,"EPHEMERIS_TYPE":0,"CLASSIFICATION_TYPE":"U","NORAD_CAT_ID":56728,"ELEMENT_SET_NO":999,"REV_AT_EPOCH":15851,"BSTAR":7.2463107e-5,"MEAN_MOTION_DOT":4.82e-6,"MEAN_MOTION_DDOT":0},{"OBJECT_NAME":"IRIDIUM 178","OBJECT_ID":"2023-068V","EPOCH":"2026-04-27T06:32:21.127200","MEAN_MOTION":14.80235296,"ECCENTRICITY":0.000247,"INCLINATION":86.6558,"RA_OF_ASC_NODE":46.6276,"ARG_OF_PERICENTER":79.9361,"MEAN_ANOMALY":280.2139,"EPHEMERIS_TYPE":0,"CLASSIFICATION_TYPE":"U","NORAD_CAT_ID":56729,"ELEMENT_SET_NO":999,"REV_AT_EPOCH":15883,"BSTAR":0.00016254711,"MEAN_MOTION_DOT":1.261e-5,"MEAN_MOTION_DDOT":0},{"OBJECT_NAME":"IRIDIUM 179","OBJECT_ID":"2023-068W","EPOCH":"2026-04-27T06:24:37.035648","MEAN_MOTION":14.80237854,"ECCENTRICITY":0.00028487,"INCLINATION":86.6787,"RA_OF_ASC_NODE":55.4594,"ARG_OF_PERICENTER":81.7196,"MEAN_ANOMALY":278.4348,"EPHEMERIS_TYPE":0,"CLASSIFICATION_TYPE":"U","NORAD_CAT_ID":56730,"ELEMENT_SET_NO":999,"REV_AT_EPOCH":15883,"BSTAR":0.00015342204,"MEAN_MOTION_DOT":1.192e-5,"MEAN_MOTION_DDOT":0}]
