IRIDIUM 173             
1 43925U 19002D   26117.25568209  .00000060  00000+0  14239-4 0  9997
2 43925  86.4013  14.8488 0002218  88.4136 271.7314 14.34217899381659
IRIDIUM 169             
1 43926U 19002E   26117.26786467  .00000312  00000+0  95353-4 0  9993
2 43926  86.4243  46.4711 0002833  92.3648 267.7875 14.38608945382906
IRIDIUM 172             
1 43927U 19002F   26117.17956702  .00000225  00000+0  73207-4 0  9992
2 43927  86.4008  14.8883 0001991  84.6266 275.5157 14.34219881381653
IRIDIUM 175             
1 43928U 19002G   26117.25962011  .00000109  00000+0  26238-4 0  9995
2 43928  86.4488 311.8247 0004786  54.9512 305.2137 14.43590445391635
IRIDIUM 171             
1 43929U 19002H   26117.23031256 -.00000018  00000+0 -13656-4 0  9993
2 43929  86.4018  15.1674 0002188  82.6387 277.5058 14.34217258381657
IRIDIUM 170             
1 43930U 19002J   26117.25735786  .00000855  00000+0  13162-3 0  9994
2 43930  86.6135  14.8349 0002236  84.1890 275.9583 14.72255706391766
IRIDIUM 167             
1 43931U 19002K   26117.22396991 -.00000004  00000+0 -85679-5 0  9995
2 43931  86.4010  14.8918 0002371  81.7323 278.4142 14.34217521381650
IRIDIUM 181             
1 56726U 23068S   26117.28800985  .00000363  00000+0  10200-3 0  9999
2 56726  86.4477  78.0640 0002128  80.5652 279.5790 14.43310829155092
IRIDIUM 177             
1 56727U 23068T   26117.08065917  .00001003  00000+0  12849-3 0  9999
2 56727  86.1993 353.0665 0002292  92.4842 267.6642 14.80236559158805
IRIDIUM 174             
1 56728U 23068U   26117.17702653  .00000482  00000+0  72463-4 0  9994
2 56728  86.6143  15.0105 0002367  90.4874 269.6615 14.72254017158518
IRIDIUM 178             
1 56729U 23068V   26117.27246675  .00001261  00000+0  16255-3 0  9995
2 56729  86.6558  46.6276 0002470  79.9361 280.2139 14.80235296158838
IRIDIUM 179             
1 56730U 23068W   26117.26709532  .00001192  00000+0  15342-3 0  9991
2 56730  86.6787  55.4594 0002848  81.7196 278.4348 14.80237854158834
